{"type": "FeatureCollection", "features": [{"type": "Feature", "properties": {"norad_id": 36828, "name": "BEIDOU-2 IGSO-1 (C06)", "group": "beidou", "lat": 19.914451961737406, "lon": 179.72144535246332, "alt_km": 35995.24213131858, "timestamp": "2025-12-17T23:38:07.118892+00:00", "meta": {"OBJECT_NAME": "BEIDOU-2 IGSO-1 (C06)", "OBJECT_ID": "2010-036A", "EPOCH": "2025-12-14T21:38:21.623424", "MEAN_MOTION": 1.00275796, "ECCENTRICITY": 0.00512569, "INCLINATION": 54.2866, "RA_OF_ASC_NODE": 164.6279, "ARG_OF_PERICENTER": 215.8888, "MEAN_ANOMALY": 135.7931, "EPHEMERIS_TYPE": 0, "CLASSIFICATION_TYPE": "U", "NORAD_CAT_ID": 36828, "ELEMENT_SET_NO": 999, "REV_AT_EPOCH": 5624, "BSTAR": 0, "MEAN_MOTION_DOT": -2.4e-07, "MEAN_MOTION_DDOT": 0}, "tle": {"line1": "1 36828U 10036A   25348.90163916 -.00000024  00000+0  00000+0 0  9999", "line2": "2 36828  54.2866 164.6279 0051256 215.8888 135.7931  1.00275796 56247"}}, "geometry": {"type": "Point", "coordinates": [179.72144535246332, 19.914451961737406]}}, {"type": "Feature", "properties": {"norad_id": 37210, "name": "BEIDOU-2 G4 (C04)", "group": "beidou", "lat": 0.44818515274224335, "lon": -118.57320171755147, "alt_km": 35744.390567684546, "timestamp": "2025-12-17T23:38:07.118916+00:00", "meta": {"OBJECT_NAME": "BEIDOU-2 G4 (C04)", "OBJECT_ID": "2010-057A", "EPOCH": "2025-12-17T14:05:10.675968", "MEAN_MOTION": 1.0027203, "ECCENTRICITY": 0.00104891, "INCLINATION": 3.1964, "RA_OF_ASC_NODE": 69.9212, "ARG_OF_PERICENTER": 192.2572, "MEAN_ANOMALY": 195.6572, "EPHEMERIS_TYPE": 0, "CLASSIFICATION_TYPE": "U", "NORAD_CAT_ID": 37210, "ELEMENT_SET_NO": 999, "REV_AT_EPOCH": 5547, "BSTAR": 0, "MEAN_MOTION_DOT": -8.9e-07, "MEAN_MOTION_DDOT": 0}, "tle": {"line1": "1 37210U 10057A   25351.58692912 -.00000089  00000+0  00000+0 0  9990", "line2": "2 37210   3.1964  69.9212 0010489 192.2572 195.6572  1.00272030 55478"}}, "geometry": {"type": "Point", "coordinates": [-118.57320171755147, 0.44818515274224335]}}, {"type": "Feature", "properties": {"norad_id": 37256, "name": "BEIDOU-2 IGSO-2 (C07)", "group": "beidou", "lat": -47.62094781484774, "lon": -167.629247605248, "alt_km": 35684.06917573729, "timestamp": "2025-12-17T23:38:07.118931+00:00", "meta": {"OBJECT_NAME": "BEIDOU-2 IGSO-2 (C07)", "OBJECT_ID": "2010-068A", "EPOCH": "2025-12-17T16:36:54.045216", "MEAN_MOTION": 1.00285241, "ECCENTRICITY": 0.00482965, "INCLINATION": 47.8765, "RA_OF_ASC_NODE": 274.0877, "ARG_OF_PERICENTER": 216.3022, "MEAN_ANOMALY": 313.2194, "EPHEMERIS_TYPE": 0, "CLASSIFICATION_TYPE": "U", "NORAD_CAT_ID": 37256, "ELEMENT_SET_NO": 999, "REV_AT_EPOCH": 5497, "BSTAR": 0, "MEAN_MOTION_DOT": -2.07e-06, "MEAN_MOTION_DDOT": 0}, "tle": {"line1": "1 37256U 10068A   25351.69229219 -.00000207  00000+0  00000+0 0  9992", "line2": "2 37256  47.8765 274.0877 0048296 216.3022 313.2194  1.00285241 54973"}}, "geometry": {"type": "Point", "coordinates": [-167.629247605248, -47.62094781484774]}}, {"type": "Feature", "properties": {"norad_id": 37384, "name": "BEIDOU-2 IGSO-3 (C08)", "group": "beidou", "lat": 29.112308561536732, "lon": -155.19322666210627, "alt_km": 35671.96198709414, "timestamp": "2025-12-17T23:38:07.118944+00:00", "meta": {"OBJECT_NAME": "BEIDOU-2 IGSO-3 (C08)", "OBJECT_ID": "2011-013A", "EPOCH": "2025-12-17T16:16:10.103808", "MEAN_MOTION": 1.00269735, "ECCENTRICITY": 0.00353562, "INCLINATION": 62.15, "RA_OF_ASC_NODE": 41.8689, "ARG_OF_PERICENTER": 187.938, "MEAN_ANOMALY": 208.2285, "EPHEMERIS_TYPE": 0, "CLASSIFICATION_TYPE": "U", "NORAD_CAT_ID": 37384, "ELEMENT_SET_NO": 999, "REV_AT_EPOCH": 5384, "BSTAR": 0, "MEAN_MOTION_DOT": -1.79e-06, "MEAN_MOTION_DDOT": 0}, "tle": {"line1": "1 37384U 11013A   25351.67789472 -.00000179  00000+0  00000+0 0  9993", "line2": "2 37384  62.1500  41.8689 0035356 187.9380 208.2285  1.00269735 53845"}}, "geometry": {"type": "Point", "coordinates": [-155.19322666210627, 29.112308561536732]}}, {"type": "Feature", "properties": {"norad_id": 37763, "name": "BEIDOU-2 IGSO-4 (C09)", "group": "beidou", "lat": 7.926154690770722, "lon": 172.98574158377767, "alt_km": 36257.750710905995, "timestamp": "2025-12-17T23:38:07.118957+00:00", "meta": {"OBJECT_NAME": "BEIDOU-2 IGSO-4 (C09)", "OBJECT_ID": "2011-038A", "EPOCH": "2025-12-15T07:50:06.120672", "MEAN_MOTION": 1.00281785, "ECCENTRICITY": 0.01493054, "INCLINATION": 54.5835, "RA_OF_ASC_NODE": 167.3229, "ARG_OF_PERICENTER": 230.222, "MEAN_ANOMALY": 258.6911, "EPHEMERIS_TYPE": 0, "CLASSIFICATION_TYPE": "U", "NORAD_CAT_ID": 37763, "ELEMENT_SET_NO": 999, "REV_AT_EPOCH": 5280, "BSTAR": 0, "MEAN_MOTION_DOT": 6.8e-07, "MEAN_MOTION_DDOT": 0}, "tle": {"line1": "1 37763U 11038A   25349.32645973  .00000068  00000+0  00000+0 0  9993", "line2": "2 37763  54.5835 167.3229 0149305 230.2220 258.6911  1.00281785 52800"}}, "geometry": {"type": "Point", "coordinates": [172.98574158377767, 7.926154690770722]}}, {"type": "Feature", "properties": {"norad_id": 37948, "name": "BEIDOU-2 IGSO-5 (C10)", "group": "beidou", "lat": -47.38643497036606, "lon": 171.3978648264547, "alt_km": 35427.187728294375, "timestamp": "2025-12-17T23:38:07.118969+00:00", "meta": {"OBJECT_NAME": "BEIDOU-2 IGSO-5 (C10)", "OBJECT_ID": "2011-073A", "EPOCH": "2025-12-17T16:24:35.912736", "MEAN_MOTION": 1.00290385, "ECCENTRICITY": 0.01100136, "INCLINATION": 48.0109, "RA_OF_ASC_NODE": 273.7976, "ARG_OF_PERICENTER": 222.3587, "MEAN_ANOMALY": 289.8191, "EPHEMERIS_TYPE": 0, "CLASSIFICATION_TYPE": "U", "NORAD_CAT_ID": 37948, "ELEMENT_SET_NO": 999, "REV_AT_EPOCH": 5131, "BSTAR": 0, "MEAN_MOTION_DOT": -1.81e-06, "MEAN_MOTION_DDOT": 0}, "tle": {"line1": "1 37948U 11073A   25351.68374899 -.00000181  00000+0  00000+0 0  9992", "line2": "2 37948  48.0109 273.7976 0110013 222.3587 289.8191  1.00290385 51317"}}, "geometry": {"type": "Point", "coordinates": [171.3978648264547, -47.38643497036606]}}, {"type": "Feature", "properties": {"norad_id": 38091, "name": "BEIDOU-2 G5 (C05)", "group": "beidou", "lat": 2.935520500575722, "lon": 140.10313413401252, "alt_km": 35838.88488410966, "timestamp": "2025-12-17T23:38:07.118981+00:00", "meta": {"OBJECT_NAME": "BEIDOU-2 G5 (C05)", "OBJECT_ID": "2012-008A", "EPOCH": "2025-12-17T17:01:53.754816", "MEAN_MOTION": 1.0026798, "ECCENTRICITY": 0.0013014, "INCLINATION": 3.1209, "RA_OF_ASC_NODE": 70.6969, "ARG_OF_PERICENTER": 231.4196, "MEAN_ANOMALY": 98.7456, "EPHEMERIS_TYPE": 0, "CLASSIFICATION_TYPE": "U", "NORAD_CAT_ID": 38091, "ELEMENT_SET_NO": 999, "REV_AT_EPOCH": 5054, "BSTAR": 0, "MEAN_MOTION_DOT": 7.9e-07, "MEAN_MOTION_DDOT": 0}, "tle": {"line1": "1 38091U 12008A   25351.70964994  .00000079  00000+0  00000+0 0  9990", "line2": "2 38091   3.1209  70.6969 0013014 231.4196  98.7456  1.00267980 50546"}}, "geometry": {"type": "Point", "coordinates": [140.10313413401252, 2.935520500575722]}}, {"type": "Feature", "properties": {"norad_id": 38250, "name": "BEIDOU-2 M3 (C11)", "group": "beidou", "lat": -10.397900977098447, "lon": 138.08994883410807, "alt_km": 21520.451184361507, "timestamp": "2025-12-17T23:38:07.118993+00:00", "meta": {"OBJECT_NAME": "BEIDOU-2 M3 (C11)", "OBJECT_ID": "2012-018A", "EPOCH": "2025-12-17T03:50:10.442976", "MEAN_MOTION": 1.86229975, "ECCENTRICITY": 0.00242741, "INCLINATION": 55.916, "RA_OF_ASC_NODE": 311.0085, "ARG_OF_PERICENTER": 274.6832, "MEAN_ANOMALY": 85.0247, "EPHEMERIS_TYPE": 0, "CLASSIFICATION_TYPE": "U", "NORAD_CAT_ID": 38250, "ELEMENT_SET_NO": 999, "REV_AT_EPOCH": 9255, "BSTAR": 0, "MEAN_MOTION_DOT": -9.2e-07, "MEAN_MOTION_DDOT": 0}, "tle": {"line1": "1 38250U 12018A   25351.15984309 -.00000092  00000+0  00000+0 0  9995", "line2": "2 38250  55.9160 311.0085 0024274 274.6832  85.0247  1.86229975 92551"}}, "geometry": {"type": "Point", "coordinates": [138.08994883410807, -10.397900977098447]}}, {"type": "Feature", "properties": {"norad_id": 38251, "name": "BEIDOU-2 M4 (C12)", "group": "beidou", "lat": -44.78947108939523, "lon": 172.57349191808046, "alt_km": 21499.91386261234, "timestamp": "2025-12-17T23:38:07.119005+00:00", "meta": {"OBJECT_NAME": "BEIDOU-2 M4 (C12)", "OBJECT_ID": "2012-018B", "EPOCH": "2025-12-17T02:12:20.700000", "MEAN_MOTION": 1.86229502, "ECCENTRICITY": 0.00154788, "INCLINATION": 55.8177, "RA_OF_ASC_NODE": 310.2391, "ARG_OF_PERICENTER": 277.6479, "MEAN_ANOMALY": 82.1616, "EPHEMERIS_TYPE": 0, "CLASSIFICATION_TYPE": "U", "NORAD_CAT_ID": 38251, "ELEMENT_SET_NO": 999, "REV_AT_EPOCH": 9255, "BSTAR": 0, "MEAN_MOTION_DOT": -9.2e-07, "MEAN_MOTION_DDOT": 0}, "tle": {"line1": "1 38251U 12018B   25351.09190625 -.00000092  00000+0  00000+0 0  9999", "line2": "2 38251  55.8177 310.2391 0015478 277.6479  82.1616  1.86229502 92550"}}, "geometry": {"type": "Point", "coordinates": [172.57349191808046, -44.78947108939523]}}, {"type": "Feature", "properties": {"norad_id": 38775, "name": "BEIDOU-2 M6 (C14)", "group": "beidou", "lat": 52.63715714930227, "lon": 129.35743235881185, "alt_km": 21521.29844666291, "timestamp": "2025-12-17T23:38:07.119017+00:00", "meta": {"OBJECT_NAME": "BEIDOU-2 M6 (C14)", "OBJECT_ID": "2012-050B", "EPOCH": "2025-12-16T06:22:47.654112", "MEAN_MOTION": 1.86230757, "ECCENTRICITY": 0.00113185, "INCLINATION": 56.3814, "RA_OF_ASC_NODE": 68.9504, "ARG_OF_PERICENTER": 343.5807, "MEAN_ANOMALY": 16.4038, "EPHEMERIS_TYPE": 0, "CLASSIFICATION_TYPE": "U", "NORAD_CAT_ID": 38775, "ELEMENT_SET_NO": 999, "REV_AT_EPOCH": 8990, "BSTAR": 0, "MEAN_MOTION_DOT": -8e-07, "MEAN_MOTION_DDOT": 0}, "tle": {"line1": "1 38775U 12050B   25350.26582933 -.00000080  00000+0  00000+0 0  9998", "line2": "2 38775  56.3814  68.9504 0011318 343.5807  16.4038  1.86230757 89902"}}, "geometry": {"type": "Point", "coordinates": [129.35743235881185, 52.63715714930227]}}]}